OBJECT_NAME,OBJECT_ID,EPOCH,MEAN_MOTION,ECCENTRICITY,INCLINATION,RA_OF_ASC_NODE,ARG_OF_PERICENTER,MEAN_ANOMALY,EPHEMERIS_TYPE,CLASSIFICATION_TYPE,NORAD_CAT_ID,ELEMENT_SET_NO,REV_AT_EPOCH,BSTAR,MEAN_MOTION_DOT,MEAN_MOTION_DDOT
STARLINK-37987,2026-150L,2026-07-17T00:00:02.000160,15.75208244,.00014143,97.2840,36.4472,93.7250,317.3759,0,U,69749,999,358,-.37039601E-3,-.55066E-3,0
STARLINK-38037,2026-150M,2026-07-17T00:50:03.939648,15.80803875,.00018859,97.2838,36.5315,62.5537,297.5923,0,U,69750,999,361,.88508986E-3,.172701E-2,0
STARLINK-38049,2026-150N,2026-07-17T00:48:35.797824,15.80810330,.00012366,97.2850,36.5335,66.0778,294.0620,0,U,69751,999,361,.90751352E-3,.177219E-2,0
STARLINK-38029,2026-150P,2026-07-17T06:00:02.000160,15.75216788,.00011674,97.2851,36.7504,103.8738,17.9222,0,U,69752,999,362,-.79930904E-3,-.117857E-2,0
STARLINK-37965,2026-150Q,2026-07-17T00:00:02.000160,15.75194544,.00015259,97.2849,36.4709,91.5244,15.5730,0,U,69753,999,358,-.19836041E-3,-.2962E-3,0
STARLINK-38048,2026-150R,2026-07-17T06:44:24.171648,15.80834568,.00011233,97.2843,36.8096,87.5995,272.5402,0,U,69754,999,365,.90411422E-3,.17674E-2,0
STARLINK-38006,2026-150S,2026-07-17T06:00:02.000160,15.75240672,.00008663,97.2847,36.7571,107.6938,28.0957,0,U,69755,999,362,-.10832275E-2,-.15907E-2,0
STARLINK-38036,2026-150T,2026-07-17T06:00:02.000160,15.75215882,.00010748,97.2853,36.7735,89.4482,84.3371,0,U,69756,999,362,-.7698884E-3,-.113575E-2,0
STARLINK-38058,2026-150U,2026-07-17T06:37:57.256032,15.81830464,.00040872,97.2833,36.8174,12.3916,347.7453,0,U,69757,999,365,.22893177E-2,.485736E-2,0
STARLINK-38066,2026-150V,2026-07-17T00:33:08.257536,15.81375738,.00018236,97.2837,36.5485,347.4235,12.6988,0,U,69758,999,361,.17478483E-2,.357787E-2,0
STARLINK-38035,2026-150W,2026-07-16T12:23:54.049920,15.80943955,.0001208,97.2826,36.0135,127.8766,232.2612,0,U,69759,999,353,.16439E-2,.328828E-2,0
STARLINK-38056,2026-150X,2026-07-17T06:32:46.259232,15.80833361,.00014891,97.2831,36.8219,96.5190,263.6247,0,U,69760,999,365,.94271876E-3,.184449E-2,0
STARLINK-38069,2026-150Y,2026-07-17T00:23:10.160448,15.80941071,.00010002,97.2829,36.5583,37.8020,322.3319,0,U,69761,999,361,.11934847E-2,.236106E-2,0
STARLINK-38019,2026-150Z,2026-07-17T06:56:01.326336,15.75203839,.00007717,97.2842,36.7987,60.7260,299.4082,0,U,69762,999,365,.53589784E-3,.80607E-3,0
KUIPER-00258,2026-151A,2026-07-17T06:00:02.000160,15.34767131,.0011043,51.8672,170.6537,175.1565,351.3222,0,U,69763,999,269,.14442456E-3,.4568E-4,0
KUIPER-00526,2026-151B,2026-07-17T06:24:51.217344,15.37347735,.00064056,51.8761,170.3724,148.1993,211.9381,0,U,69764,999,233,.31335083E-3,.11279E-3,0
KUIPER-00558,2026-151C,2026-07-17T06:00:02.000160,15.34456797,.00078422,51.8774,170.5295,153.6015,75.8976,0,U,69765,999,293,-.34926E-1,-.1086615E-1,0
KUIPER-00569,2026-151D,2026-07-16T10:05:34.338912,15.37675352,.0003566,51.8774,174.4478,139.8001,220.3251,0,U,69766,999,220,.38488E-2,.147069E-2,0
KUIPER-00589,2026-151E,2026-07-17T06:23:37.438656,15.37374399,.00055368,51.8754,170.3672,149.1210,211.0104,0,U,69767,999,233,.31473018E-3,.1134E-3,0
KUIPER-00598,2026-151F,2026-07-17T06:00:02.000160,15.34450888,.00083055,51.8639,170.6507,168.8507,357.3531,0,U,69768,999,287,.14533968E-3,.4549E-4,0
KUIPER-00604,2026-151G,2026-07-17T06:11:57.550272,15.38268837,.00027494,51.8806,170.3123,117.0983,243.0284,0,U,69769,999,233,.32217441E-3,.11966E-3,0
KUIPER-00609,2026-151H,2026-07-17T06:06:08.703360,15.38667388,.000108,51.8800,170.2889,49.2617,310.8464,0,U,69770,999,233,.32788836E-3,.12349E-3,0
KUIPER-00611,2026-151J,2026-07-17T06:08:58.760160,15.38481944,.00018039,51.8801,170.2977,98.9036,261.2156,0,U,69771,999,233,.3512747E-3,.13177E-3,0
KUIPER-00612,2026-151K,2026-07-17T06:16:07.227264,15.37973090,.00034709,51.8795,170.3342,121.2298,238.9029,0,U,69772,999,233,.34796086E-3,.1283E-3,0
KUIPER-00614,2026-151L,2026-07-17T06:13:10.083936,15.38179889,.00023618,51.8808,170.3177,126.6342,233.4863,0,U,69773,999,233,.31949842E-3,.11828E-3,0
KUIPER-00615,2026-151M,2026-07-17T06:26:07.238112,15.37254703,.00060092,51.8775,170.3803,154.8313,205.2968,0,U,69774,999,233,.36560757E-3,.13188E-3,0
KUIPER-00616,2026-151N,2026-07-17T06:10:44.691744,15.38427979,.00028368,51.8792,170.3109,127.9747,232.1496,0,U,69775,999,233,.32630123E-3,.12189E-3,0
KUIPER-00617,2026-151P,2026-07-17T06:17:59.354592,15.37814162,.00040363,51.8794,170.3426,140.9993,219.1286,0,U,69776,999,233,.34776241E-3,.12756E-3,0
KUIPER-00619,2026-151Q,2026-07-17T06:07:31.274112,15.38573796,.00020296,51.8800,170.2932,67.0552,293.0649,0,U,69777,999,233,.34598292E-3,.13012E-3,0
KUIPER-00621,2026-151R,2026-07-17T06:10:40.516032,15.38363146,.00016795,51.8799,170.3093,113.9790,246.1373,0,U,69778,999,233,.35185253E-3,.13147E-3,0
