STARLINK-37987          
1 69749U 26150L   26198.00002315 -.00055066  00000+0 -37040-3 0  9996
2 69749  97.2840  36.4472 0001414  93.7250 317.3759 15.75208244  3588
STARLINK-38037          
1 69750U 26150M   26198.03476782  .00172701  00000+0  88509-3 0  9994
2 69750  97.2838  36.5315 0001885  62.5537 297.5923 15.80803875  3611
STARLINK-38049          
1 69751U 26150N   26198.03374766  .00177219  00000+0  90751-3 0  9995
2 69751  97.2850  36.5335 0001236  66.0778 294.0620 15.80810330  3614
STARLINK-38029          
1 69752U 26150P   26198.25002315 -.00117857  00000+0 -79931-3 0  9999
2 69752  97.2851  36.7504 0001167 103.8738  17.9222 15.75216788  3627
STARLINK-37965          
1 69753U 26150Q   26198.00002315 -.00029620  00000+0 -19836-3 0  9991
2 69753  97.2849  36.4709 0001525  91.5244  15.5730 15.75194544  3580
STARLINK-38048          
1 69754U 26150R   26198.28083532  .00176740  00000+0  90411-3 0  9994
2 69754  97.2843  36.8096 0001123  87.5995 272.5402 15.80834568  3652
STARLINK-38006          
1 69755U 26150S   26198.25002315 -.00159070  00000+0 -10832-2 0  9999
2 69755  97.2847  36.7571 0000866 107.6938  28.0957 15.75240672  3625
STARLINK-38036          
1 69756U 26150T   26198.25002315 -.00113575  00000+0 -76989-3 0  9996
2 69756  97.2853  36.7735 0001074  89.4482  84.3371 15.75215882  3628
STARLINK-38058          
1 69757U 26150U   26198.27635713  .00485736  00000+0  22893-2 0  9996
2 69757  97.2833  36.8174 0004087  12.3916 347.7453 15.81830464  3655
STARLINK-38066          
1 69758U 26150V   26198.02301224  .00357787  00000+0  17478-2 0  9994
2 69758  97.2837  36.5485 0001823 347.4235  12.6988 15.81375738  3618
STARLINK-38035          
1 69759U 26150W   26197.51659780  .00328828  00000+0  16439-2 0  9991
2 69759  97.2826  36.0135 0001208 127.8766 232.2612 15.80943955  3536
STARLINK-38056          
1 69760U 26150X   26198.27275763  .00184449  00000+0  94272-3 0  9993
2 69760  97.2831  36.8219 0001489  96.5190 263.6247 15.80833361  3653
STARLINK-38069          
1 69761U 26150Y   26198.01608982  .00236106  00000+0  11935-2 0  9991
2 69761  97.2829  36.5583 0001000  37.8020 322.3319 15.80941071  3618
STARLINK-38019          
1 69762U 26150Z   26198.28890424  .00080607  00000+0  53590-3 0  9992
2 69762  97.2842  36.7987 0000771  60.7260 299.4082 15.75203839  3651
KUIPER-00258            
1 69763U 26151A   26198.25002315  .00004568  00000+0  14442-3 0  9990
2 69763  51.8672 170.6537 0011043 175.1565 351.3222 15.34767131  2693
KUIPER-00526            
1 69764U 26151B   26198.26725946  .00011279  00000+0  31335-3 0  9991
2 69764  51.8761 170.3724 0006405 148.1993 211.9381 15.37347735  2334
KUIPER-00558            
1 69765U 26151C   26198.25002315 -.01086615  00000+0 -34926-1 0  9995
2 69765  51.8774 170.5295 0007842 153.6015  75.8976 15.34456797  2935
KUIPER-00569            
1 69766U 26151D   26197.42053633  .00147069  00000+0  38488-2 0  9999
2 69766  51.8774 174.4478 0003566 139.8001 220.3251 15.37675352  2208
KUIPER-00589            
1 69767U 26151E   26198.26640554  .00011340  00000+0  31473-3 0  9997
2 69767  51.8754 170.3672 0005536 149.1210 211.0104 15.37374399  2338
KUIPER-00598            
1 69768U 26151F   26198.25002315  .00004549  00000+0  14534-3 0  9996
2 69768  51.8639 170.6507 0008305 168.8507 357.3531 15.34450888  2877
KUIPER-00604            
1 69769U 26151G   26198.25830498  .00011966  00000+0  32217-3 0  9997
2 69769  51.8806 170.3123 0002749 117.0983 243.0284 15.38268837  2337
KUIPER-00609            
1 69770U 26151H   26198.25426740  .00012349  00000+0  32789-3 0  9990
2 69770  51.8800 170.2889 0001080  49.2617 310.8464 15.38667388  2335
KUIPER-00611            
1 69771U 26151J   26198.25623565  .00013177  00000+0  35127-3 0  9994
2 69771  51.8801 170.2977 0001803  98.9036 261.2156 15.38481944  2333
KUIPER-00612            
1 69772U 26151K   26198.26119476  .00012830  00000+0  34796-3 0  9993
2 69772  51.8795 170.3342 0003470 121.2298 238.9029 15.37973090  2332
KUIPER-00614            
1 69773U 26151L   26198.25914449  .00011828  00000+0  31950-3 0  9991
2 69773  51.8808 170.3177 0002361 126.6342 233.4863 15.38179889  2332
KUIPER-00615            
1 69774U 26151M   26198.26813933  .00013188  00000+0  36561-3 0  9993
2 69774  51.8775 170.3803 0006009 154.8313 205.2968 15.37254703  2337
KUIPER-00616            
1 69775U 26151N   26198.25746171  .00012189  00000+0  32630-3 0  9995
2 69775  51.8792 170.3109 0002836 127.9747 232.1496 15.38427979  2335
KUIPER-00617            
1 69776U 26151P   26198.26249253  .00012756  00000+0  34776-3 0  9999
2 69776  51.8794 170.3426 0004036 140.9993 219.1286 15.37814162  2337
KUIPER-00619            
1 69777U 26151Q   26198.25522308  .00013012  00000+0  34598-3 0  9992
2 69777  51.8800 170.2932 0002029  67.0552 293.0649 15.38573796  2337
KUIPER-00621            
1 69778U 26151R   26198.25741338  .00013147  00000+0  35185-3 0  9991
2 69778  51.8799 170.3093 0001679 113.9790 246.1373 15.38363146  2338
